{
    "links": {
        "self": "http://www.neowsapp.com/rest/v1/neo/3841714?api_key=iIulBulltgU6a56xZRHN4H3l9WmuAYTsLGpBGhQ2"
    },
    "id": "3841714",
    "neo_reference_id": "3841714",
    "name": "(2019 JQ1)",
    "designation": "2019 JQ1",
    "nasa_jpl_url": "http://ssd.jpl.nasa.gov/sbdb.cgi?sstr=3841714",
    "absolute_magnitude_h": 25.9,
    "estimated_diameter": {
        "kilometers": {
            "estimated_diameter_min": 0.0175612318,
            "estimated_diameter_max": 0.0392681082
        },
        "meters": {
            "estimated_diameter_min": 17.561231848,
            "estimated_diameter_max": 39.2681081809
        },
        "miles": {
            "estimated_diameter_min": 0.0109120402,
            "estimated_diameter_max": 0.0244000636
        },
        "feet": {
            "estimated_diameter_min": 57.6155918963,
            "estimated_diameter_max": 128.8323800441
        }
    },
    "is_potentially_hazardous_asteroid": false,
    "close_approach_data": [
        {
            "close_approach_date": "2019-05-12",
            "close_approach_date_full": "2019-May-12 22:54",
            "epoch_date_close_approach": 1557701640000,
            "relative_velocity": {
                "kilometers_per_second": "6.081992944",
                "kilometers_per_hour": "21895.1745983133",
                "miles_per_hour": "13604.8100163798"
            },
            "miss_distance": {
                "astronomical": "0.0558689103",
                "lunar": "21.7330061067",
                "kilometers": "8357869.980101061",
                "miles": "5193339.5872782018"
            },
            "orbiting_body": "Earth"
        }
    ],
    "orbital_data": {
        "orbit_id": "3",
        "orbit_determination_date": "2019-08-02 07:00:07",
        "first_observation_date": "2019-05-02",
        "last_observation_date": "2019-06-07",
        "data_arc_in_days": 36,
        "observations_used": 26,
        "orbit_uncertainty": "7",
        "minimum_orbit_intersection": ".0553141",
        "jupiter_tisserand_invariant": "3.486",
        "epoch_osculation": "2459000.5",
        "eccentricity": ".5143834719938406",
        "semi_major_axis": "2.193602062730718",
        "inclination": ".8048047115371615",
        "ascending_node_longitude": "272.6015805389939",
        "orbital_period": "1186.68429723659",
        "perihelion_distance": "1.065249417530441",
        "perihelion_argument": "319.344894727109",
        "aphelion_distance": "3.321954707930995",
        "perihelion_time": "2458616.402598258096",
        "mean_anomaly": "116.5221996693511",
        "mean_motion": ".3033662793367415",
        "equinox": "J2000",
        "orbit_class": {
            "orbit_class_type": "AMO",
            "orbit_class_description": "Near-Earth asteroid orbits similar to that of 1221 Amor",
            "orbit_class_range": "1.017 AU < q (perihelion) < 1.3 AU"
        }
    },
    "is_sentry_object": false
}